#cP2023  2 16  0  0  0.00000000      96 ORBIT IGS20 HLM  IGS
## 2249 345600.00000000   900.00000000 59991 0.0000000000000
+   32   G01G02G03G04G05G06G07G08G09G10G11G12G13G14G15G16G17
+        G18G19G20G21G22G23G24G25G26G27G28G29G30G31G32  0  0
+          0  0  0  0  0  0  0  0  0  0  0  0  0  0  0  0  0
+          0  0  0  0  0  0  0  0  0  0  0  0  0  0  0  0  0
+          0  0  0  0  0  0  0  0  0  0  0  0  0  0  0  0  0
++         2  2  2  3  2  2  2  2  3  2  2  2  2  2  2  2  2
++         2  2  2  2  3  2  2  2  2  2  2  2  2  2  3  0  0
++         0  0  0  0  0  0  0  0  0  0  0  0  0  0  0  0  0
++         0  0  0  0  0  0  0  0  0  0  0  0  0  0  0  0  0
++         0  0  0  0  0  0  0  0  0  0  0  0  0  0  0  0  0
%c G  cc GPS ccc cccc cccc cccc cccc ccccc ccccc ccccc ccccc
%c cc cc ccc ccc cccc cccc cccc cccc ccccc ccccc ccccc ccccc
%f  1.2500000  1.025000000  0.00000000000  0.000000000000000
%f  0.0000000  0.000000000  0.00000000000  0.000000000000000
%i    0    0    0    0      0      0      0      0         0
%i    0    0    0    0      0      0      0      0         0
/* RAPID ORBIT COMBINATION FROM WEIGHTED AVERAGE OF:        
/* cod emr esa gfz grg jpl ngs sio usn whu                  
/* REFERENCED TO IGS TIME (IGST) AND TO WEIGHTED MEAN POLE: 
/* PCV:IGS20_2233 OL/AL:FES2014b NONE     Y  ORB:CMB CLK:CMB
*  2023  2 16 11 15  0.00000000
PG01 -16923.773178  -5675.924577  19470.424516    211.940140  5  6  6 133       
PG02  16542.973519    567.492016 -20091.284385   -620.468686  5  7  5 130       
PG03 -18427.083436   5793.259746  18057.417940   -362.428753  4  4  1  94       
PG04 -26396.238840    -85.336487  -3447.044588    -26.313729  8  3  6 153       
PG05  11698.822063   9942.921819 -21833.379529   -116.115956  6  5  5 123       
PG06   3784.767666  23925.402624  10851.543236    573.009366  4  6  5 143       
PG07 -12027.821381   9712.153263 -21119.182126    239.993420  8  6  5 109       
PG08 -24420.670601  -6849.445158  -8589.098922   -108.754919  9  4  7 147       
PG09 -21435.860444   8548.928322 -13264.072472   -217.198057  6  5  4 113       
PG10  10142.110028 -23514.890305   6572.543016    -24.937270  4  2  2 100       
PG11  12177.037637  23491.670706  -2501.978501   -105.719288  8  7  5 155       
PG12  18401.956695  -2862.364037  18618.407816   -341.003315  6  6  5 106       
PG13  18860.465148  13237.670523 -13554.153475    476.981756 10  8  9 151       
PG14 -12801.181686  22865.686897   3885.945355    -25.822456  7  5  6  99       
PG15  25013.181821   4490.326487  -8633.321703     13.939464 10  6  7 156       
PG16  -8970.673884 -12824.770338 -21703.263856   -519.819557  5  6  6 111       
PG17  -9462.847319  13394.942131  21347.052845    700.385027  7  7  6 134       
PG18   9299.177661 -13488.730377 -20871.228044   -142.955374  7  5  7 116       
PG19   2719.870500  15187.790033  21424.188993    278.445975  5  6  4 125       
PG20   4761.994707  19752.539781 -17181.970347    450.378199  5  5  3 105       
PG21 -19411.222688 -12690.907714  14241.245256    154.032738  8  7  7 151       
PG22  -6424.042142 -15653.669479  20948.658005    428.154815     8  3 119       
PG23  16538.825930 -20031.076524  -5149.934921      6.398402  7  5  4 128       
PG24  19233.042908   8739.100277  15992.033346    -76.036165  7  5  3 137       
PG25  19049.295695 -12923.175510  12695.035282    420.569547  7  6  4 108       
PG26    529.923961 -22266.891223 -14321.491764    241.540391  5  5  5 106       
PG27 -16197.632486 -12753.440050 -17211.249294    101.095191  9  5  6 150       
PG28  -2997.603749 -23354.862906  12260.085134     14.602753  7  6    117       
PG29  23836.573188  -4259.398189 -11049.895124   -586.406261  9  6  4 150       
PG30  -3000.013907  20788.140046 -16006.829593   -530.108606  7  7  6  98       
PG31  -4780.292358 -24365.369337   8593.866633   -209.384187  8     5 103       
PG32   5411.680879 -14813.749785  21512.950902   -397.816965  8  5  9 113       
*  2023  2 16 11 30  0.00000000
PG01 -17861.094844  -7650.306072  17952.720684    211.936377  5  6  6 130       
PG02  17729.854423   2611.276805 -18898.081385   -620.466394  4  7  5 124       
PG03 -17386.587323   3881.127793  19540.894535   -362.424466  4  4  2  81       
PG04 -26612.995265   -339.375299   -606.171923    -26.306342  8  2  7 148       
PG05  10480.920072  12053.535156 -21370.104162   -116.117799  5  6  5 111       
PG06   3006.901834  22786.093672  13295.998411    573.013188  4  6  5 133       
PG07 -13260.573902   7505.507448 -21320.084582    239.986873  7  6  5 105       
PG08 -23311.658853  -7048.357572 -11115.534700   -108.757227  9  4  7 152       
PG09 -22806.258034   8322.668291 -10902.887413   -217.191703  7  5  4 112       
PG10  10632.841844 -23888.360081   3747.331084    -24.938786  3  4  3 125       
PG11  12012.370167  23707.425270    356.184989   -105.728525  7  7  5 148       
PG12  17183.756398   -953.659005  19922.271039   -341.007375  6  6  4 108       
PG13  17219.879774  13123.025444 -15690.371972    476.987375  8  7  8 141       
PG14 -13204.760495  22939.616748   1064.228394    -25.814303  7  6  6 104       
PG15  23980.372480   4876.354602 -11104.024860     13.942290  9  5  7 156       
PG16  -7488.096698 -14698.143389 -21017.168977   -519.817684  6  5  6  97       
PG17 -11739.138089  13129.838506  20345.664124    700.387377  8  7  6 135       
PG18  10470.258259 -11360.115077 -21584.173947   -142.969572  7  5  7 121       
PG19    224.190087  14871.440276  21786.394695    278.450426  4  6  4 116       
PG20   3893.169062  21409.756445 -15338.136795    450.376498  6  5  3 119       
PG21 -20058.933480 -13925.748323  11979.879601    154.033056  8  7  7 142       
PG22  -4087.904556 -15447.421334  21675.510208    428.161527  2  8  4 122       
PG23  16358.898385 -19269.907872  -7905.397037      6.399882  8  4  4 139       
PG24  20022.151253  10333.895001  14031.364824    -76.050501  6  5  3 129       
PG25  18410.909822 -11397.748343  14883.345876    420.572433  7  6  5 107       
PG26   1482.806723 -23475.633363 -12107.603901    241.540621  5  5  5  99       
PG27 -14191.107006 -12810.980806 -18846.493594    101.086980  9  5  6 155       
PG28  -2045.199516 -22132.702577  14510.041346     14.616308  7  5    114       
PG29  24918.525249  -3968.620706  -8463.473746   -586.408192 10  6  3 159       
PG30  -4107.843893  19153.649669 -17722.741111   -530.107478  7  7  6 111       
PG31  -3999.818194 -23455.500287  11143.206752   -209.385014  7  1  5 102       
PG32   7801.289337 -14701.710120  20822.050924   -397.827420  9  5  9  92       
*  2023  2 16 11 45  0.00000000
PG01 -18808.624055  -9400.368730  16122.357598    211.932546  5  6  7 135       
PG02  18925.050761   4462.043317 -17360.028630   -620.463945  4  6  4 121       
PG03 -16380.875768   1783.448491  20683.624461   -362.420219  5  4  2  87       
PG04 -26521.374997   -580.840576   2245.064961    -26.298957  8  2  7 158       
PG05   9407.243412  14161.722040 -20544.035588   -116.118688  5  6  5 129       
PG06   2028.547521  21467.265456  15511.440344    573.017113  4  6  5 123       
PG07 -14598.245965   5365.437235 -21139.080121    239.980475  6  6  5 111       
PG08 -21941.677644  -7321.896450 -13455.122806   -108.759057  9  4  6 153       
PG09 -23910.190497   8152.279896  -8355.176115   -217.185411  7  5  5 123       
PG10  10951.202509 -23999.307170    856.573354    -24.940028  4  5  4 130       
PG11  11703.137709  23648.653710   3208.232827   -105.737779  6  7  6 143       
PG12  15997.620715   1125.829660  20874.141687   -341.011861  5  6  4 114       
PG13  15351.773577  13073.800652 -17561.914811    476.992784  7  6  8 121       
PG14 -13442.997666  22755.961321  -1775.947756    -25.806184  7  6  5 110       
PG15  22708.457970   5353.715173 -13390.216508     13.945394  9  5  7 145       
PG16  -6157.224175 -16570.846973 -19975.779356   -519.816151  6  4  6 117       
PG17 -13897.718909  12995.184086  19007.626066    700.389023  9  7  5 140       
PG18  11784.415166  -9247.626154 -21925.032467   -142.983863  8  5  7 126       
PG19  -2307.295615  14687.976990  21765.984410    278.455246  3  6  4 120       
PG20   3181.121611  22896.696657 -13232.199832    450.374292  7  5  4 124       
PG21 -20617.409622 -14917.736946   9526.512382    154.033429  8  7  8 132       
PG22  -1682.732797 -15363.875558  22044.463654    428.168887  5  8  4 111       
PG23  16083.622247 -18226.816541 -10523.640301      6.401341  8  4  5 142       
PG24  20746.044001  11695.352890  11828.731524    -76.064885  6  5  3 126       
PG25  17740.365765  -9632.504258  16807.113122    420.575321  7  6  5 109       
PG26   2270.061916 -24490.408949  -9682.887490    241.540881  5  5  6 113       
PG27 -12024.014974 -12984.172121 -20167.637279    101.078815  9  5  6 152       
PG28   -895.868377 -20761.834580  16509.826385     14.629873  7  5  1 113       
PG29  25714.339414  -3750.360999  -5732.273894   -586.410389 10  6  2 167       
PG30  -5382.607377  17422.738628 -19128.689344   -530.106309  7  6  6 123       
PG31  -3032.499233 -22343.919643  13494.453412   -209.385867  7  2  5 101       
PG32  10098.276731 -14710.381852  19776.719442   -397.837869  9  6  9  95       
EOF
